{
  "type": "FeatureCollection",
  "features": [
    {
      "type": "Feature",
      "properties": {
        "norad_id": 66435,
        "name": "STARLINK-35502",
        "group": "last-30-days",
        "lat": -40.34646189427594,
        "lon": 31.281979955034622,
        "alt_km": 417.25009149889956,
        "timestamp": "2025-12-04T05:42:42.157540+00:00",
        "meta_object_name": "STARLINK-35502",
        "meta_object_id": "2025-259P",
        "meta_epoch": "2025-12-03T22:00:03.000096",
        "meta_mean_motion": 15.50666525,
        "meta_eccentricity": 0.00016394,
        "meta_inclination": 43.0002,
        "meta_ra_of_asc_node": 98.8859,
        "meta_arg_of_pericenter": 277.5498,
        "meta_mean_anomaly": 15.1017,
        "meta_ephemeris_type": 0,
        "meta_classification_type": "U",
        "meta_norad_cat_id": 66435,
        "meta_element_set_no": 999,
        "meta_rev_at_epoch": 486,
        "meta_bstar": -0.0029403427,
        "meta_mean_motion_dot": -0.00169685,
        "meta_mean_motion_ddot": 0,
        "tle_line1": "1 66435U 25259P   25337.91670139 -.00169685  00000+0 -29403-2 0  9999",
        "tle_line2": "2 66435  43.0002  98.8859 0001639 277.5498  15.1017 15.50666525  4867"
      },
      "geometry": {
        "type": "Point",
        "coordinates": [
          31.281979955034622,
          -40.34646189427594
        ]
      }
    },
    {
      "type": "Feature",
      "properties": {
        "norad_id": 66436,
        "name": "STARLINK-35501",
        "group": "last-30-days",
        "lat": -39.180076112188054,
        "lon": 35.997616956205924,
        "alt_km": 417.24147877927953,
        "timestamp": "2025-12-04T05:42:42.157550+00:00",
        "meta_object_name": "STARLINK-35501",
        "meta_object_id": "2025-259Q",
        "meta_epoch": "2025-12-03T22:00:03.000096",
        "meta_mean_motion": 15.5063508,
        "meta_eccentricity": 0.00016961,
        "meta_inclination": 43.0002,
        "meta_ra_of_asc_node": 98.8752,
        "meta_arg_of_pericenter": 264.2981,
        "meta_mean_anomaly": 32.1821,
        "meta_ephemeris_type": 0,
        "meta_classification_type": "U",
        "meta_norad_cat_id": 66436,
        "meta_element_set_no": 999,
        "meta_rev_at_epoch": 486,
        "meta_bstar": -0.0018935609,
        "meta_mean_motion_dot": -0.00110102,
        "meta_mean_motion_ddot": 0,
        "tle_line1": "1 66436U 25259Q   25337.91670139 -.00110102  00000+0 -18936-2 0  9999",
        "tle_line2": "2 66436  43.0002  98.8752 0001696 264.2981  32.1821 15.50635080  4867"
      },
      "geometry": {
        "type": "Point",
        "coordinates": [
          35.997616956205924,
          -39.180076112188054
        ]
      }
    },
    {
      "type": "Feature",
      "properties": {
        "norad_id": 66437,
        "name": "STARLINK-35474",
        "group": "last-30-days",
        "lat": -38.51843328617977,
        "lon": 38.32266953532326,
        "alt_km": 417.38898283844446,
        "timestamp": "2025-12-04T05:42:42.157560+00:00",
        "meta_object_name": "STARLINK-35474",
        "meta_object_id": "2025-259R",
        "meta_epoch": "2025-12-03T22:00:03.000096",
        "meta_mean_motion": 15.50653561,
        "meta_eccentricity": 0.00014558,
        "meta_inclination": 43.0002,
        "meta_ra_of_asc_node": 98.8705,
        "meta_arg_of_pericenter": 264.9064,
        "meta_mean_anomaly": 33.5024,
        "meta_ephemeris_type": 0,
        "meta_classification_type": "U",
        "meta_norad_cat_id": 66437,
        "meta_element_set_no": 999,
        "meta_rev_at_epoch": 486,
        "meta_bstar": -0.002586375,
        "meta_mean_motion_dot": -0.00149606,
        "meta_mean_motion_ddot": 0,
        "tle_line1": "1 66437U 25259R   25337.91670139 -.00149606  00000+0 -25864-2 0  9999",
        "tle_line2": "2 66437  43.0002  98.8705 0001455 264.9064  33.5024 15.50653561  4862"
      },
      "geometry": {
        "type": "Point",
        "coordinates": [
          38.32266953532326,
          -38.51843328617977
        ]
      }
    },
    {
      "type": "Feature",
      "properties": {
        "norad_id": 66438,
        "name": "STARLINK-34681",
        "group": "last-30-days",
        "lat": -37.81554954040649,
        "lon": 40.591940570917124,
        "alt_km": 417.2565041506641,
        "timestamp": "2025-12-04T05:42:42.157570+00:00",
        "meta_object_name": "STARLINK-34681",
        "meta_object_id": "2025-259S",
        "meta_epoch": "2025-12-03T22:00:03.000096",
        "meta_mean_motion": 15.50675771,
        "meta_eccentricity": 0.00015315,
        "meta_inclination": 43.0004,
        "meta_ra_of_asc_node": 98.8659,
        "meta_arg_of_pericenter": 272.7977,
        "meta_mean_anomaly": 27.522,
        "meta_ephemeris_type": 0,
        "meta_classification_type": "U",
        "meta_norad_cat_id": 66438,
        "meta_element_set_no": 999,
        "meta_rev_at_epoch": 475,
        "meta_bstar": -0.0031184555,
        "meta_mean_motion_dot": -0.00179771,
        "meta_mean_motion_ddot": 0,
        "tle_line1": "1 66438U 25259S   25337.91670139 -.00179771  00000+0 -31185-2 0  9999",
        "tle_line2": "2 66438  43.0004  98.8659 0001531 272.7977  27.5220 15.50675771  4754"
      },
      "geometry": {
        "type": "Point",
        "coordinates": [
          40.591940570917124,
          -37.81554954040649
        ]
      }
    },
    {
      "type": "Feature",
      "properties": {
        "norad_id": 66439,
        "name": "STARLINK-35327",
        "group": "last-30-days",
        "lat": -39.78458789370385,
        "lon": 33.672470791238446,
        "alt_km": 417.2288269180981,
        "timestamp": "2025-12-04T05:42:42.157582+00:00",
        "meta_object_name": "STARLINK-35327",
        "meta_object_id": "2025-259T",
        "meta_epoch": "2025-12-03T22:00:03.000096",
        "meta_mean_motion": 15.50673945,
        "meta_eccentricity": 0.00016293,
        "meta_inclination": 43.0002,
        "meta_ra_of_asc_node": 98.8825,
        "meta_arg_of_pericenter": 277.2328,
        "meta_mean_anomaly": 17.3308,
        "meta_ephemeris_type": 0,
        "meta_classification_type": "U",
        "meta_norad_cat_id": 66439,
        "meta_element_set_no": 999,
        "meta_rev_at_epoch": 486,
        "meta_bstar": -0.0030451137,
        "meta_mean_motion_dot": -0.00175633,
        "meta_mean_motion_ddot": 0,
        "tle_line1": "1 66439U 25259T   25337.91670139 -.00175633  00000+0 -30451-2 0  9998",
        "tle_line2": "2 66439  43.0002  98.8825 0001629 277.2328  17.3308 15.50673945  4863"
      },
      "geometry": {
        "type": "Point",
        "coordinates": [
          33.672470791238446,
          -39.78458789370385
        ]
      }
    },
    {
      "type": "Feature",
      "properties": {
        "norad_id": 66440,
        "name": "STARLINK-35405",
        "group": "last-30-days",
        "lat": -37.08188663379938,
        "lon": 42.78222076141042,
        "alt_km": 417.06386447926343,
        "timestamp": "2025-12-04T05:42:42.157592+00:00",
        "meta_object_name": "STARLINK-35405",
        "meta_object_id": "2025-259U",
        "meta_epoch": "2025-12-03T22:00:03.000096",
        "meta_mean_motion": 15.50632152,
        "meta_eccentricity": 0.00017149,
        "meta_inclination": 43.0004,
        "meta_ra_of_asc_node": 98.8618,
        "meta_arg_of_pericenter": 280.9007,
        "meta_mean_anomaly": 21.3374,
        "meta_ephemeris_type": 0,
        "meta_classification_type": "U",
        "meta_norad_cat_id": 66440,
        "meta_element_set_no": 999,
        "meta_rev_at_epoch": 486,
        "meta_bstar": -0.0019165397,
        "meta_mean_motion_dot": -0.00111404,
        "meta_mean_motion_ddot": 0,
        "tle_line1": "1 66440U 25259U   25337.91670139 -.00111404  00000+0 -19165-2 0  9995",
        "tle_line2": "2 66440  43.0004  98.8618 0001714 280.9007  21.3374 15.50632152  4860"
      },
      "geometry": {
        "type": "Point",
        "coordinates": [
          42.78222076141042,
          -37.08188663379938
        ]
      }
    },
    {
      "type": "Feature",
      "properties": {
        "norad_id": 66441,
        "name": "STARLINK-35426",
        "group": "last-30-days",
        "lat": -36.298026591226,
        "lon": 44.95592642541176,
        "alt_km": 417.05052402451565,
        "timestamp": "2025-12-04T05:42:42.157602+00:00",
        "meta_object_name": "STARLINK-35426",
        "meta_object_id": "2025-259V",
        "meta_epoch": "2025-12-03T22:00:03.000096",
        "meta_mean_motion": 15.50632778,
        "meta_eccentricity": 0.000171,
        "meta_inclination": 43.0004,
        "meta_ra_of_asc_node": 98.856,
        "meta_arg_of_pericenter": 278.2546,
        "meta_mean_anomaly": 25.8989,
        "meta_ephemeris_type": 0,
        "meta_classification_type": "U",
        "meta_norad_cat_id": 66441,
        "meta_element_set_no": 999,
        "meta_rev_at_epoch": 486,
        "meta_bstar": -0.0018987737,
        "meta_mean_motion_dot": -0.00110391,
        "meta_mean_motion_ddot": 0,
        "tle_line1": "1 66441U 25259V   25337.91670139 -.00110391  00000+0 -18988-2 0  9992",
        "tle_line2": "2 66441  43.0004  98.8560 0001710 278.2546  25.8989 15.50632778  4866"
      },
      "geometry": {
        "type": "Point",
        "coordinates": [
          44.95592642541176,
          -36.298026591226
        ]
      }
    }
  ]
}